STARLINK-32915          
1 63152U 25043W   26067.90914219  .00036119  00000+0  13153-2 0  9991
2 63152  42.9991  27.4604 0001231 246.1784 113.8939 15.27588605 57165
2025-313BC              
1 67298U 25313BC  26068.18968176  .00075331  00000+0  26410-2 0  9997
2 67298  97.3985 144.8110 0008478 328.9209  31.1528 15.29126358  7890
